[{"OBJECT_NAME":"STARLINK-11436 [DTC]","OBJECT_ID":"2025-024J","EPOCH":"2026-03-09T11:23:17.840256","MEAN_MOTION":15.70828407,"ECCENTRICITY":8.957e-5,"INCLINATION":42.9994,"RA_OF_ASC_NODE":182.6726,"ARG_OF_PERICENTER":286.6969,"MEAN_ANOMALY":73.38,"EPHEMERIS_TYPE":0,"CLASSIFICATION_TYPE":"U","NORAD_CAT_ID":62887,"ELEMENT_SET_NO":999,"REV_AT_EPOCH":6343,"BSTAR":0.0019392662,"MEAN_MOTION_DOT":0.00256084,"MEAN_MOTION_DDOT":0},{"OBJECT_NAME":"CZ-2D DEB","OBJECT_ID":"2005-024K","EPOCH":"2026-03-07T20:58:14.771712","MEAN_MOTION":15.70813446,"ECCENTRICITY":0.0005756,"INCLINATION":97.1809,"RA_OF_ASC_NODE":100.1703,"ARG_OF_PERICENTER":144.4044,"MEAN_ANOMALY":215.7604,"EPHEMERIS_TYPE":0,"CLASSIFICATION_TYPE":"U","NORAD_CAT_ID":35271,"ELEMENT_SET_NO":999,"REV_AT_EPOCH":8871,"BSTAR":0.00070506615,"MEAN_MOTION_DOT":0.00088213,"MEAN_MOTION_DDOT":0}]
